     2              NAVIGATION DATA                         RINEX VERSION / TYPE
CCRINEXN V1.6.0 UX  CDDIS               27-JAN-16 15:33     PGM / RUN BY / DATE 
IGS BROADCAST EPHEMERIS FILE                                COMMENT             
    0.1211D-07 -0.7451D-08 -0.5960D-07  0.5960D-07          ION ALPHA           
    0.1147D+06 -0.1311D+06 -0.2621D+06  0.7209D+06          ION BETA            
   -0.931322574615D-09 0.532907051820D-14   319488     1881 DELTA-UTC: A0,A1,T,W
    17                                                      LEAP SECONDS        
                                                            END OF HEADER       
28 16  1 26 20  0  0.0 0.498082488775D-03 0.261479726760D-11 0.000000000000D+00
    0.630000000000D+02 0.108281250000D+03 0.370801159642D-08-0.155502110914D+01
    0.581517815590D-05 0.200081729563D-01 0.834651291370D-05 0.515362972832D+04
    0.244800000000D+06 0.130385160446D-06-0.205581878748D+01 0.510364770889D-06
    0.989419114992D+00 0.235906250000D+03-0.162717331576D+01-0.777425240025D-08
    0.208222959036D-09 0.000000000000D+00 0.188100000000D+04 0.000000000000D+00
    0.200000000000D+01 0.000000000000D+00-0.107102096081D-07 0.630000000000D+02
    0.244110000000D+06 0.400000000000D+01 0.000000000000D+00 0.000000000000D+00
29 16  1 26 20  0  0.0 0.652776099741D-03 0.102318153950D-11 0.000000000000D+00
    0.630000000000D+02-0.151562500000D+02 0.450233039728D-08 0.278620288076D+00
   -0.849366188049D-06 0.101108883973D-02 0.239536166191D-05 0.515362121201D+04
    0.244800000000D+06 0.279396772385D-07-0.102764698427D+01 0.149011611938D-07
    0.975868038992D+00 0.341781250000D+03-0.584585633995D+00-0.831856078716D-08
   -0.432160858377D-10 0.000000000000D+00 0.188100000000D+04 0.000000000000D+00
    0.200000000000D+01 0.000000000000D+00-0.102445483208D-07 0.630000000000D+02
    0.239130000000D+06 0.400000000000D+01 0.000000000000D+00 0.000000000000D+00
31 16  1 26 20  0  0.0 0.285354908556D-03-0.159161572810D-11 0.000000000000D+00
    0.200000000000D+01-0.154375000000D+02 0.417231665088D-08 0.110203083146D+01
   -0.759959220886D-06 0.834610778838D-02 0.975094735622D-05 0.515368408585D+04
    0.244800000000D+06 0.139698386192D-06 0.313920650985D+01 0.428408384323D-07
    0.972906115571D+00 0.193031250000D+03-0.444031829651D+00-0.779782481070D-08
   -0.547522806523D-09 0.100000000000D+01 0.188100000000D+04 0.000000000000D+00
    0.200000000000D+01 0.000000000000D+00-0.135041773319D-07 0.200000000000D+01
    0.237618000000D+06 0.400000000000D+01 0.000000000000D+00 0.000000000000D+00
19 16  1 26 21 59 28.0-0.524609349668D-03-0.113686837722D-12 0.000000000000D+00
    0.100000000000D+02-0.303437500000D+02 0.454447500991D-08 0.224554694020D+01
   -0.180117785931D-05 0.112677679863D-01 0.229291617870D-05 0.515518929291D+04
    0.251968000000D+06-0.156462192535D-06-0.988234313732D+00-0.189989805222D-06
    0.972042850538D+00 0.346062500000D+03 0.674949562953D+00-0.827677333226D-08
   -0.133576992589D-09 0.100000000000D+01 0.188100000000D+04 0.000000000000D+00
    0.200000000000D+01 0.000000000000D+00-0.153668224812D-07 0.100000000000D+02
    0.244878000000D+06 0.400000000000D+01 0.000000000000D+00 0.000000000000D+00
 3 16  1 26 21 59 44.0-0.167288817465D-04-0.488853402203D-11 0.000000000000D+00
    0.670000000000D+02 0.313125000000D+02 0.447661504041D-08-0.627359870845D+00
    0.152550637722D-05 0.302212894894D-03 0.984594225883D-05 0.515378065300D+04
    0.251984000000D+06 0.000000000000D+00 0.101180258230D+01-0.372529029846D-08
    0.959142441001D+00 0.185343750000D+03 0.292707651557D+01-0.795997442203D-08
    0.504306720685D-09 0.100000000000D+01 0.188100000000D+04 0.000000000000D+00
    0.200000000000D+01 0.000000000000D+00 0.186264514923D-08 0.670000000000D+02
    0.245388000000D+06 0.400000000000D+01 0.000000000000D+00 0.000000000000D+00
13 16  1 26 21 59 44.0-0.181149225682D-03-0.261479726760D-11 0.000000000000D+00
    0.340000000000D+02-0.518750000000D+01 0.478698511143D-08 0.313329416740D+01
   -0.325962901115D-06 0.466321874410D-02 0.471062958240D-05 0.515367359543D+04
    0.251984000000D+06 0.465661287308D-07 0.217175221159D+01 0.558793544769D-07
    0.971919108149D+00 0.293656250000D+03 0.198778621230D+01-0.813569602725D-08
   -0.971469037013D-10 0.000000000000D+00 0.188100000000D+04 0.000000000000D+00
    0.200000000000D+01 0.000000000000D+00-0.111758708954D-07 0.340000000000D+02
    0.245700000000D+06 0.400000000000D+01 0.000000000000D+00 0.000000000000D+00
16 16  1 26 21 59 44.0-0.449717044830D-04 0.318323145621D-11 0.000000000000D+00
    0.400000000000D+01 0.837500000000D+02 0.377480009272D-08-0.276799941074D+00
    0.433251261711D-05 0.845144561026D-02 0.793673098087D-05 0.515369883347D+04
    0.251984000000D+06 0.949949026108D-07-0.206096697029D+01 0.577419996262D-07
    0.990749289347D+00 0.241750000000D+03 0.317296553452D+00-0.786211320286D-08
    0.170364239211D-09 0.100000000000D+01 0.188100000000D+04 0.000000000000D+00
    0.200000000000D+01 0.000000000000D+00-0.102445483208D-07 0.400000000000D+01
    0.248958000000D+06 0.400000000000D+01 0.000000000000D+00 0.000000000000D+00
18 16  1 26 21 59 44.0 0.477101653814D-03 0.386535248253D-11 0.000000000000D+00
    0.110000000000D+02 0.259062500000D+02 0.538736726261D-08 0.301904376032D+00
    0.137090682983D-05 0.165392805357D-01 0.102594494820D-04 0.515365924835D+04
    0.251984000000D+06-0.234693288803D-06 0.983053080678D+00 0.949949026108D-07
    0.924908558977D+00 0.166281250000D+03-0.191642767970D+01-0.865714631918D-08
    0.429660754238D-09 0.000000000000D+00 0.188100000000D+04 0.000000000000D+00
    0.200000000000D+01 0.000000000000D+00-0.111758708954D-07 0.110000000000D+02
    0.250200000000D+06 0.400000000000D+01 0.000000000000D+00 0.000000000000D+00
22 16  1 26 21 59 44.0 0.406185165048D-03-0.522959453519D-11 0.000000000000D+00
    0.500000000000D+01 0.276250000000D+02 0.532450750140D-08-0.699089355581D+00
    0.155530869961D-05 0.757140945643D-02 0.985525548458D-05 0.515510096741D+04
    0.251984000000D+06-0.316649675369D-07 0.983837175510D+00 0.126659870148D-06
    0.922756877122D+00 0.170812500000D+03-0.202580833093D+01-0.845928093443D-08
    0.490377569051D-09 0.100000000000D+01 0.188100000000D+04 0.000000000000D+00
    0.200000000000D+01 0.000000000000D+00-0.176951289177D-07 0.500000000000D+01
    0.251706000000D+06 0.400000000000D+01 0.000000000000D+00 0.000000000000D+00
 1 16  1 26 22  0  0.0 0.101393088698D-04 0.909494701773D-12 0.000000000000D+00
    0.250000000000D+02-0.938125000000D+02 0.417553107049D-08 0.288071563954D+01
   -0.480189919472D-05 0.500278582331D-02 0.913813710213D-05 0.515366036224D+04
    0.252000000000D+06-0.745058059692D-08-0.289064127538D-01-0.279396772385D-07
    0.964090195255D+00 0.205250000000D+03 0.473280342872D+00-0.785782731005D-08
   -0.150720563831D-09 0.100000000000D+01 0.188100000000D+04 0.000000000000D+00
    0.200000000000D+01 0.000000000000D+00 0.512227416039D-08 0.250000000000D+02
    0.244818000000D+06 0.400000000000D+01 0.000000000000D+00 0.000000000000D+00
 2 16  1 26 22  0  0.0 0.599417369813D-03 0.227373675443D-12 0.000000000000D+00
    0.270000000000D+02-0.117406250000D+03 0.459161983082D-08-0.289830373892D+01
   -0.603310763836D-05 0.153321193066D-01 0.913999974728D-05 0.515371945763D+04
    0.252000000000D+06 0.137835741043D-06-0.717681174759D-01-0.184401869774D-06
    0.942801808440D+00 0.190062500000D+03-0.217788055683D+01-0.794211653532D-08
   -0.181436128972D-09 0.000000000000D+00 0.188100000000D+04 0.000000000000D+00
    0.200000000000D+01 0.000000000000D+00-0.204890966415D-07 0.270000000000D+02
    0.244800000000D+06 0.400000000000D+01 0.000000000000D+00 0.000000000000D+00
 3 16  1 26 22  0  0.0-0.167298130691D-04-0.488853402203D-11 0.000000000000D+00
    0.650000000000D+02 0.313125000000D+02 0.447661504041D-08-0.625030021661D+00
    0.152550637722D-05 0.302215339616D-03 0.984594225883D-05 0.515378065681D+04
    0.252000000000D+06 0.000000000000D+00 0.101180246527D+01-0.372529029846D-08
    0.959142426372D+00 0.185343750000D+03 0.292708024309D+01-0.795997442203D-08
    0.504306720685D-09 0.100000000000D+01 0.188100000000D+04 0.000000000000D+00
    0.200000000000D+01 0.000000000000D+00 0.186264514923D-08 0.650000000000D+02
    0.244818000000D+06 0.400000000000D+01 0.000000000000D+00 0.000000000000D+00
 5 16  1 26 22  0  0.0-0.151731073856D-03 0.352429196937D-11 0.000000000000D+00
    0.300000000000D+02 0.285937500000D+02 0.477055585566D-08-0.458119444022D+00
    0.162422657013D-05 0.458851538133D-02 0.106506049633D-04 0.515372313881D+04
    0.252000000000D+06 0.596046447754D-07 0.100151774741D+01 0.540167093277D-07
    0.946269083746D+00 0.163906250000D+03 0.486051551872D+00-0.816641159239D-08
    0.556094592143D-09 0.000000000000D+00 0.188100000000D+04 0.000000000000D+00
    0.200000000000D+01 0.000000000000D+00-0.107102096081D-07 0.300000000000D+02
    0.244800000000D+06 0.400000000000D+01 0.000000000000D+00 0.000000000000D+00
 6 16  1 26 22  0  0.0 0.135587062687D-03 0.613908923697D-11 0.000000000000D+00
    0.520000000000D+02-0.105125000000D+03 0.422803325741D-08-0.222905470690D+01
   -0.538304448128D-05 0.257648527622D-03 0.938773155212D-05 0.515363193512D+04
    0.252000000000D+06 0.186264514923D-08-0.373528028885D-01-0.111758708954D-07
    0.963938101514D+00 0.200312500000D+03-0.225239857408D+01-0.793925927345D-08
   -0.222866426138D-09 0.000000000000D+00 0.188100000000D+04 0.000000000000D+00
    0.200000000000D+01 0.000000000000D+00 0.419095158577D-08 0.520000000000D+02
    0.244800000000D+06 0.400000000000D+01 0.000000000000D+00 0.000000000000D+00
